{"type": "FeatureCollection", "features": [ {"type": "Feature", "properties": {"norad_id": 29963, "name": "FENGYUN 1C DEB", "group": "fengyun-1c-debris", "lat": -34.41832093295785, "lon": 41.53447643388255, "alt_km": 803.2236503482709, "timestamp": "2025-12-09T21:34:11.680672+00:00", "meta": {"OBJECT_NAME": "FENGYUN 1C DEB", "OBJECT_ID": "1999-025KM", "EPOCH": "2025-12-09T15:39:17.855136", "MEAN_MOTION": 14.29443911, "ECCENTRICITY": 0.00517221, "INCLINATION": 98.9981, "RA_OF_ASC_NODE": 227.5129, "ARG_OF_PERICENTER": 311.1837, "MEAN_ANOMALY": 76.6638, "EPHEMERIS_TYPE": 0, "CLASSIFICATION_TYPE": "U", "NORAD_CAT_ID": 29963, "ELEMENT_SET_NO": 999, "REV_AT_EPOCH": 98099, "BSTAR": 0.0012402343, "MEAN_MOTION_DOT": 3.164e-05, "MEAN_MOTION_DDOT": 0}, "tle": {"line1": "1 29963U 99025KM  25343.65228999  .00003164  00000+0  12402-2 0  9995", "line2": "2 29963  98.9981 227.5129 0051722 311.1837  76.6638 14.29443911980993"}}, "geometry": {"type": "Point", "coordinates": [41.53447643388255, -34.41832093295785]}}, {"type": "Feature", "properties": {"norad_id": 29964, "name": "FENGYUN 1C DEB", "group": "fengyun-1c-debris", "lat": 23.201100981628816, "lon": -176.98761977511717, "alt_km": 908.8117551389678, "timestamp": "2025-12-09T21:34:11.680683+00:00", "meta": {"OBJECT_NAME": "FENGYUN 1C DEB", "OBJECT_ID": "1999-025KN", "EPOCH": "2025-12-09T12:53:55.263552", "MEAN_MOTION": 14.0272925, "ECCENTRICITY": 0.01308987, "INCLINATION": 98.371, "RA_OF_ASC_NODE": 186.2985, "ARG_OF_PERICENTER": 278.6397, "MEAN_ANOMALY": 79.996, "EPHEMERIS_TYPE": 0, "CLASSIFICATION_TYPE": "U", "NORAD_CAT_ID": 29964, "ELEMENT_SET_NO": 999, "REV_AT_EPOCH": 96272, "BSTAR": 0.0014779154, "MEAN_MOTION_DOT": 2.422e-05, "MEAN_MOTION_DDOT": 0}, "tle": {"line1": "1 29964U 99025KN  25343.53744518  .00002422  00000+0  14779-2 0  9998", "line2": "2 29964  98.3710 186.2985 0130898 278.6397  79.9960 14.02729250962728"}}, "geometry": {"type": "Point", "coordinates": [-176.98761977511717, 23.201100981628816]}}, {"type": "Feature", "properties": {"norad_id": 29965, "name": "FENGYUN 1C DEB", "group": "fengyun-1c-debris", "lat": -24.531839178385084, "lon": 154.47571519400194, "alt_km": 980.0476338320805, "timestamp": "2025-12-09T21:34:11.680693+00:00", "meta": {"OBJECT_NAME": "FENGYUN 1C DEB", "OBJECT_ID": "1999-025KP", "EPOCH": "2025-12-09T11:00:07.121664", "MEAN_MOTION": 13.95773219, "ECCENTRICITY": 0.01462122, "INCLINATION": 98.9623, "RA_OF_ASC_NODE": 338.1775, "ARG_OF_PERICENTER": 76.9493, "MEAN_ANOMALY": 75.1298, "EPHEMERIS_TYPE": 0, "CLASSIFICATION_TYPE": "U", "NORAD_CAT_ID": 29965, "ELEMENT_SET_NO": 999, "REV_AT_EPOCH": 96230, "BSTAR": 0.00041354027, "MEAN_MOTION_DOT": 5.75e-06, "MEAN_MOTION_DDOT": 0}, "tle": {"line1": "1 29965U 99025KP  25343.45841576  .00000575  00000+0  41354-3 0  9999", "line2": "2 29965  98.9623 338.1775 0146212  76.9493  75.1298 13.95773219962307"}}, "geometry": {"type": "Point", "coordinates": [154.47571519400194, -24.531839178385084]}}, {"type": "Feature", "properties": {"norad_id": 29966, "name": "FENGYUN 1C DEB", "group": "fengyun-1c-debris", "lat": 74.88366003649419, "lon": 48.89395654856706, "alt_km": 807.6856770916893, "timestamp": "2025-12-09T21:34:11.680704+00:00", "meta": {"OBJECT_NAME": "FENGYUN 1C DEB", "OBJECT_ID": "1999-025KQ", "EPOCH": "2025-12-09T12:40:29.034048", "MEAN_MOTION": 14.25744243, "ECCENTRICITY": 0.00397387, "INCLINATION": 99.4916, "RA_OF_ASC_NODE": 190.2254, "ARG_OF_PERICENTER": 354.5161, "MEAN_ANOMALY": 5.5576, "EPHEMERIS_TYPE": 0, "CLASSIFICATION_TYPE": "U", "NORAD_CAT_ID": 29966, "ELEMENT_SET_NO": 999, "REV_AT_EPOCH": 97997, "BSTAR": 0.00064970331, "MEAN_MOTION_DOT": 1.505e-05, "MEAN_MOTION_DDOT": 0}, "tle": {"line1": "1 29966U 99025KQ  25343.52811382  .00001505  00000+0  64970-3 0  9993", "line2": "2 29966  99.4916 190.2254 0039738 354.5161   5.5576 14.25744243979975"}}, "geometry": {"type": "Point", "coordinates": [48.89395654856706, 74.88366003649419]}}, {"type": "Feature", "properties": {"norad_id": 29967, "name": "FENGYUN 1C DEB", "group": "fengyun-1c-debris", "lat": -60.504085329623905, "lon": 76.49997444635166, "alt_km": 766.0756137975759, "timestamp": "2025-12-09T21:34:11.680715+00:00", "meta": {"OBJECT_NAME": "FENGYUN 1C DEB", "OBJECT_ID": "1999-025KR", "EPOCH": "2025-12-07T16:35:37.538880", "MEAN_MOTION": 14.2354236, "ECCENTRICITY": 0.00756516, "INCLINATION": 98.8659, "RA_OF_ASC_NODE": 58.2588, "ARG_OF_PERICENTER": 307.2531, "MEAN_ANOMALY": 205.2875, "EPHEMERIS_TYPE": 0, "CLASSIFICATION_TYPE": "U", "NORAD_CAT_ID": 29967, "ELEMENT_SET_NO": 999, "REV_AT_EPOCH": 97150, "BSTAR": 0.0024744814, "MEAN_MOTION_DOT": 5.758e-05, "MEAN_MOTION_DDOT": 0}, "tle": {"line1": "1 29967U 99025KR  25341.69140670  .00005758  00000+0  24745-2 0  9994", "line2": "2 29967  98.8659  58.2588 0075651 307.2531 205.2875 14.23542360971502"}}, "geometry": {"type": "Point", "coordinates": [76.49997444635166, -60.504085329623905]}}, {"type": "Feature", "properties": {"norad_id": 29968, "name": "FENGYUN 1C DEB", "group": "fengyun-1c-debris", "lat": 26.816971432761314, "lon": -30.773153011133015, "alt_km": 808.0661580460719, "timestamp": "2025-12-09T21:34:11.680725+00:00", "meta": {"OBJECT_NAME": "FENGYUN 1C DEB", "OBJECT_ID": "1999-025KS", "EPOCH": "2025-12-09T10:14:39.180768", "MEAN_MOTION": 14.07253553, "ECCENTRICITY": 0.00902408, "INCLINATION": 98.8043, "RA_OF_ASC_NODE": 333.2606, "ARG_OF_PERICENTER": 4.0864, "MEAN_ANOMALY": 153.3587, "EPHEMERIS_TYPE": 0, "CLASSIFICATION_TYPE": "U", "NORAD_CAT_ID": 29968, "ELEMENT_SET_NO": 999, "REV_AT_EPOCH": 97002, "BSTAR": 0.00043681857, "MEAN_MOTION_DOT": 7.17e-06, "MEAN_MOTION_DDOT": 0}, "tle": {"line1": "1 29968U 99025KS  25343.42684237  .00000717  00000+0  43682-3 0  9992", "line2": "2 29968  98.8043 333.2606 0090240   4.0864 153.3587 14.07253553970023"}}, "geometry": {"type": "Point", "coordinates": [-30.773153011133015, 26.816971432761314]}}, {"type": "Feature", "properties": {"norad_id": 29969, "name": "FENGYUN 1C DEB", "group": "fengyun-1c-debris", "lat": 0.2857175247714752, "lon": -111.78738809398871, "alt_km": 799.1102692085933, "timestamp": "2025-12-09T21:34:11.680736+00:00", "meta": {"OBJECT_NAME": "FENGYUN 1C DEB", "OBJECT_ID": "1999-025KT", "EPOCH": "2025-12-09T04:15:37.447200", "MEAN_MOTION": 14.33165036, "ECCENTRICITY": 0.00419739, "INCLINATION": 98.7705, "RA_OF_ASC_NODE": 67.4383, "ARG_OF_PERICENTER": 61.4012, "MEAN_ANOMALY": 358.7764, "EPHEMERIS_TYPE": 0, "CLASSIFICATION_TYPE": "U", "NORAD_CAT_ID": 29969, "ELEMENT_SET_NO": 999, "REV_AT_EPOCH": 97611, "BSTAR": 0.0020633579, "MEAN_MOTION_DOT": 5.68e-05, "MEAN_MOTION_DDOT": 0}, "tle": {"line1": "1 29969U 99025KT  25343.17751675  .00005680  00000+0  20634-2 0  9991", "line2": "2 29969  98.7705  67.4383 0041973  61.4012 358.7764 14.33165036976118"}}, "geometry": {"type": "Point", "coordinates": [-111.78738809398871, 0.2857175247714752]}}, {"type": "Feature", "properties": {"norad_id": 29970, "name": "FENGYUN 1C DEB", "group": "fengyun-1c-debris", "lat": -79.50920280858945, "lon": -31.028633940584456, "alt_km": 740.7015823912825, "timestamp": "2025-12-09T21:34:11.680746+00:00", "meta": {"OBJECT_NAME": "FENGYUN 1C DEB", "OBJECT_ID": "1999-025KU", "EPOCH": "2025-12-09T14:27:14.467392", "MEAN_MOTION": 14.43937773, "ECCENTRICITY": 0.00905999, "INCLINATION": 98.808, "RA_OF_ASC_NODE": 271.8046, "ARG_OF_PERICENTER": 196.9319, "MEAN_ANOMALY": 337.4224, "EPHEMERIS_TYPE": 0, "CLASSIFICATION_TYPE": "U", "NORAD_CAT_ID": 29970, "ELEMENT_SET_NO": 999, "REV_AT_EPOCH": 99075, "BSTAR": 0.00076175965, "MEAN_MOTION_DOT": 2.684e-05, "MEAN_MOTION_DDOT": 0}, "tle": {"line1": "1 29970U 99025KU  25343.60225078  .00002684  00000+0  76176-3 0  9998", "line2": "2 29970  98.8080 271.8046 0090599 196.9319 337.4224 14.43937773990753"}}, "geometry": {"type": "Point", "coordinates": [-31.028633940584456, -79.50920280858945]}}, {"type": "Feature", "properties": {"norad_id": 29971, "name": "FENGYUN 1C DEB", "group": "fengyun-1c-debris", "lat": 23.152454502626256, "lon": -152.52405881857445, "alt_km": 814.9173217611778, "timestamp": "2025-12-09T21:34:11.680757+00:00", "meta": {"OBJECT_NAME": "FENGYUN 1C DEB", "OBJECT_ID": "1999-025KV", "EPOCH": "2025-12-09T14:46:27.311232", "MEAN_MOTION": 14.18163844, "ECCENTRICITY": 0.00237268, "INCLINATION": 98.6833, "RA_OF_ASC_NODE": 23.4521, "ARG_OF_PERICENTER": 176.6232, "MEAN_ANOMALY": 335.1354, "EPHEMERIS_TYPE": 0, "CLASSIFICATION_TYPE": "U", "NORAD_CAT_ID": 29971, "ELEMENT_SET_NO": 999, "REV_AT_EPOCH": 97295, "BSTAR": 0.0012960431, "MEAN_MOTION_DOT": 2.627e-05, "MEAN_MOTION_DDOT": 0}, "tle": {"line1": "1 29971U 99025KV  25343.61559388  .00002627  00000+0  12960-2 0  9991", "line2": "2 29971  98.6833  23.4521 0023726 176.6232 335.1354 14.18163844972957"}}, "geometry": {"type": "Point", "coordinates": [-152.52405881857445, 23.152454502626256]}}, {"type": "Feature", "properties": {"norad_id": 29972, "name": "FENGYUN 1C DEB", "group": "fengyun-1c-debris", "lat": -7.957969691131353, "lon": 174.49842196912056, "alt_km": 721.6591089598005, "timestamp": "2025-12-09T21:34:11.680767+00:00", "meta": {"OBJECT_NAME": "FENGYUN 1C DEB", "OBJECT_ID": "1999-025KW", "EPOCH": "2025-12-08T23:41:59.756352", "MEAN_MOTION": 14.66262963, "ECCENTRICITY": 0.0065177, "INCLINATION": 98.9215, "RA_OF_ASC_NODE": 354.767, "ARG_OF_PERICENTER": 23.9035, "MEAN_ANOMALY": 36.5763, "EPHEMERIS_TYPE": 0, "CLASSIFICATION_TYPE": "U", "NORAD_CAT_ID": 29972, "ELEMENT_SET_NO": 999, "REV_AT_EPOCH": 99431, "BSTAR": 0.0014964, "MEAN_MOTION_DOT": 8.461e-05, "MEAN_MOTION_DDOT": 0}, "tle": {"line1": "1 29972U 99025KW  25342.98749718  .00008461  00000+0  14964-2 0  9997", "line2": "2 29972  98.9215 354.7670 0065177  23.9035  36.5763 14.66262963994316"}}, "geometry": {"type": "Point", "coordinates": [174.49842196912056, -7.957969691131353]}}]}